STARLINK-3624           
1 51773U 22017F   26164.52188265  .00006679  00000+0  43497-3 0  9998
2 51773  53.1868 268.8225 0001043  75.1464 284.9644 15.09036873237072
STARLINK-3629           
1 51774U 22017G   26164.57694976 -.00000248  00000+0  24822-5 0  9995
2 51774  53.1610 268.5901 0001271  89.9906 270.1231 15.08831726237048
STARLINK-3620           
1 51775U 22017H   26165.00002315  .00182927  00000+0  27972-2 0  9995
2 51775  53.2178 256.2757 0000971  55.1716 359.6725 15.53266190  5841
STARLINK-3608           
1 51776U 22017J   26164.57327042 -.00000113  00000+0  10970-4 0  9993
2 51776  53.1606 268.6060 0001278  90.3613 269.7525 15.08830674237041
STARLINK-3625           
1 51777U 22017K   26164.51166376  .00000491  00000+0  48958-4 0  9994
2 51777  53.1610 268.8554 0001153  84.3727 275.7396 15.08827154237062
STARLINK-3615           
1 51778U 22017L   26164.51529634  .00000110  00000+0  24989-4 0  9991
2 51778  53.1598 258.7434 0001310  88.5208 271.5933 15.08833028237022
STARLINK-3611           
1 51779U 22017M   26164.70672549 -.00001452  00000+0 -73162-4 0  9996
2 51779  53.1607 268.0562 0001224  86.8991 273.2141 15.08821637237061
STARLINK-3617           
1 51780U 22017N   26164.55854302  .00000570  00000+0  53910-4 0  9997
2 51780  53.1609 268.6649 0001261  82.2136 277.8999 15.08835594236897
STARLINK-3580           
1 51781U 22017P   26164.56222517 -.00000437  00000+0 -93781-5 0  9991
2 51781  53.1607 268.6189 0001318  88.7918 271.3224 15.08831984236896
STARLINK-3616           
1 51782U 22017Q   26165.00002315  .00005489  00000+0  34220-3 0  9995
2 51782  53.1601 276.8291 0000716 127.7363 262.5979 15.10991478  5818
STARLINK-3628           
1 51783U 22017R   26164.83099404  .00089474  00000+0  54584-2 0  9991
2 51783  53.1608 267.4883 0001251  70.1169 289.9957 15.09573433236932
STARLINK-3632           
1 51784U 22017S   26164.57971120  .00000087  00000+0  23570-4 0  9993
2 51784  53.1597 278.5788 0001315  88.8213 271.2929 15.08831498236754
STARLINK-3646           
1 51785U 22017T   26164.55582333 -.00000066  00000+0  13944-4 0  9998
2 51785  53.1604 268.6578 0001073  90.9679 269.1435 15.08834093236899
STARLINK-3638           
1 51786U 22017U   26164.63859253 -.00000130  00000+0  99394-5 0  9992
2 51786  53.1602 278.3138 0001226  87.7306 272.3826 15.08832796236763
STARLINK-3619           
1 51787U 22017V   26165.00002315  .00009815  00000+0  56081-3 0  9996
2 51787  53.1600 276.6451 0001364  63.4133  42.0674 15.13310715  5814
STARLINK-3641           
1 51788U 22017W   26164.62755434  .00000321  00000+0  38249-4 0  9991
2 51788  53.1601 278.3660 0001472  77.5509 282.5647 15.08831091238403
STARLINK-3639           
1 51789U 22017X   26164.57601904  .00001204  00000+0  93730-4 0  9995
2 51789  53.1582 278.5967 0001117  88.7150 271.3969 15.08844746236756
STARLINK-3631           
1 51790U 22017Y   26164.95224387  .00008554  00000+0  54855-3 0  9994
2 51790  53.2137 276.9457 0000994 117.9504 242.1590 15.09264540238501
STARLINK-3602           
1 51791U 22017Z   26164.76739282 -.00000033  00000+0  16004-4 0  9999
2 51791  53.1603 277.7346 0001331  87.4846 272.6298 15.08833535238420
STARLINK-3626           
1 51792U 22017AA  26164.61650836 -.00000156  00000+0  82863-5 0  9994
2 51792  53.1597 278.4085 0001197  70.2742 289.8378 15.08833381238457
STARLINK-3633           
1 51793U 22017AB  26165.15759440  .01016322  68830-3  74504-3 0  9998
2 51793  53.2068 229.0438 0005403 353.2395   6.8570 16.15143698239195
STARLINK-3573           
1 51794U 22017AC  26165.00002315  .00471582  00000+0  32827-2 0  9999
2 51794  53.2172 262.6490 0001088  49.6733 270.8442 15.72446505  5917
STARLINK-3586           
1 51795U 22017AD  26164.63126324  .00002817  00000+0  19499-3 0  9997
2 51795  53.1600 278.5457 0001230  80.8137 279.2993 15.08836407238405
STARLINK-3634           
1 51798U 22017AG  26164.59444220 -.00000365  00000+0 -48445-5 0  9996
2 51798  53.1620 278.5114 0001489  95.0712 265.0450 15.08818086238441
STARLINK-3637           
1 51799U 22017AH  26164.93568056  .00088664  00000+0  54019-2 0  9996
2 51799  53.1619 276.9646 0000891  85.8536 274.2558 15.09626948238456
STARLINK-3592           
1 51801U 22017AK  26164.60181328 -.00002097  00000+0 -11375-3 0  9994
2 51801  53.1596 278.4803 0001253  78.1684 281.9448 15.08814914238407
STARLINK-3544           
1 51803U 22017AM  26164.92085247  .00086778  00000+0  52866-2 0  9999
2 51803  53.1613 277.0350 0001267  67.7955 292.3171 15.09642216238449
STARLINK-3601           
1 51804U 22017AN  26164.53738730  .00001251  00000+0  96627-4 0  9997
2 51804  53.1596 258.7704 0001058  75.6680 284.4429 15.08846475238620
STARLINK-3605           
1 51805U 22017AP  26164.47484006 -.00000250  00000+0  23505-5 0  9990
2 51805  53.1604 259.1283 0000621  21.6791 338.4227 15.08832680238705
STARLINK-3606           
1 51807U 22017AR  26164.55486783 -.00000214  00000+0  46565-5 0  9996
2 51807  53.1605 268.6873 0000937 100.2592 259.8505 15.08833202238583
