OBJECT_NAME,OBJECT_ID,EPOCH,MEAN_MOTION,ECCENTRICITY,INCLINATION,RA_OF_ASC_NODE,ARG_OF_PERICENTER,MEAN_ANOMALY,EPHEMERIS_TYPE,CLASSIFICATION_TYPE,NORAD_CAT_ID,ELEMENT_SET_NO,REV_AT_EPOCH,BSTAR,MEAN_MOTION_DOT,MEAN_MOTION_DDOT
STARLINK-3624,2022-017F,2026-06-13T12:31:30.660960,15.09036873,.00010433,53.1868,268.8225,75.1464,284.9644,0,U,51773,999,23707,.43497289E-3,.6679E-4,0
STARLINK-3629,2022-017G,2026-06-13T13:50:48.459264,15.08831726,.0001271,53.1610,268.5901,89.9906,270.1231,0,U,51774,999,23704,.24822E-5,-.248E-5,0
STARLINK-3620,2022-017H,2026-06-14T00:00:02.000160,15.53266190,.00009711,53.2178,256.2757,55.1716,359.6725,0,U,51775,999,584,.27972437E-2,.182927E-2,0
STARLINK-3608,2022-017J,2026-06-13T13:45:30.564288,15.08830674,.0001278,53.1606,268.6060,90.3613,269.7525,0,U,51776,999,23704,.1097E-4,-.113E-5,0
STARLINK-3625,2022-017K,2026-06-13T12:16:47.748864,15.08827154,.00011532,53.1610,268.8554,84.3727,275.7396,0,U,51777,999,23706,.48958164E-4,.491E-5,0
STARLINK-3615,2022-017L,2026-06-13T12:22:01.603776,15.08833028,.00013106,53.1598,258.7434,88.5208,271.5933,0,U,51778,999,23702,.24988589E-4,.11E-5,0
STARLINK-3611,2022-017M,2026-06-13T16:57:41.082336,15.08821637,.00012245,53.1607,268.0562,86.8991,273.2141,0,U,51779,999,23706,-.73161825E-4,-.1452E-4,0
STARLINK-3617,2022-017N,2026-06-13T13:24:18.116928,15.08835594,.00012611,53.1609,268.6649,82.2136,277.8999,0,U,51780,999,23689,.53910017E-4,.57E-5,0
STARLINK-3580,2022-017P,2026-06-13T13:29:36.254688,15.08831984,.0001318,53.1607,268.6189,88.7918,271.3224,0,U,51781,999,23689,-.9378103E-5,-.437E-5,0
STARLINK-3616,2022-017Q,2026-06-14T00:00:02.000160,15.10991478,.00007167,53.1601,276.8291,127.7363,262.5979,0,U,51782,999,581,.3422038E-3,.5489E-4,0
STARLINK-3628,2022-017R,2026-06-13T19:56:37.885056,15.09573433,.0001251,53.1608,267.4883,70.1169,289.9957,0,U,51783,999,23693,.54584442E-2,.89474E-3,0
STARLINK-3632,2022-017S,2026-06-13T13:54:47.047680,15.08831498,.0001315,53.1597,278.5788,88.8213,271.2929,0,U,51784,999,23675,.2357E-4,.87E-6,0
STARLINK-3646,2022-017T,2026-06-13T13:20:23.135712,15.08834093,.00010735,53.1604,268.6578,90.9679,269.1435,0,U,51785,999,23689,.139443E-4,-.66E-6,0
STARLINK-3638,2022-017U,2026-06-13T15:19:34.394592,15.08832796,.00012269,53.1602,278.3138,87.7306,272.3826,0,U,51786,999,23676,.9939357E-5,-.13E-5,0
STARLINK-3619,2022-017V,2026-06-14T00:00:02.000160,15.13310715,.00013644,53.1600,276.6451,63.4133,42.0674,0,U,51787,999,581,.56081268E-3,.9815E-4,0
STARLINK-3641,2022-017W,2026-06-13T15:03:40.694976,15.08831091,.00014722,53.1601,278.3660,77.5509,282.5647,0,U,51788,999,23840,.38249249E-4,.321E-5,0
STARLINK-3639,2022-017X,2026-06-13T13:49:28.045056,15.08844746,.0001117,53.1582,278.5967,88.7150,271.3969,0,U,51789,999,23675,.9373E-4,.1204E-4,0
STARLINK-3631,2022-017Y,2026-06-13T22:51:13.870368,15.09264540,.00009946,53.2137,276.9457,117.9504,242.1590,0,U,51790,999,23850,.54854651E-3,.8554E-4,0
STARLINK-3602,2022-017Z,2026-06-13T18:25:02.739648,15.08833535,.00013311,53.1603,277.7346,87.4846,272.6298,0,U,51791,999,23842,.1600372E-4,-.33E-6,0
STARLINK-3626,2022-017AA,2026-06-13T14:47:46.322304,15.08833381,.0001197,53.1597,278.4085,70.2742,289.8378,0,U,51792,999,23845,.82863E-5,-.156E-5,0
STARLINK-3633,2022-017AB,2026-06-14T03:46:56.156160,16.15143698,.0005403,53.2068,229.0438,353.2395,6.8570,0,U,51793,999,23919,.74504E-3,.1016322E-1,.6883E-3
STARLINK-3573,2022-017AC,2026-06-14T00:00:02.000160,15.72446505,.00010882,53.2172,262.6490,49.6733,270.8442,0,U,51794,999,591,.32826824E-2,.471582E-2,0
STARLINK-3586,2022-017AD,2026-06-13T15:09:01.143936,15.08836407,.000123,53.1600,278.5457,80.8137,279.2993,0,U,51795,999,23840,.19499341E-3,.2817E-4,0
STARLINK-3634,2022-017AG,2026-06-13T14:15:59.806080,15.08818086,.0001489,53.1620,278.5114,95.0712,265.0450,0,U,51798,999,23844,-.48445E-5,-.365E-5,0
STARLINK-3637,2022-017AH,2026-06-13T22:27:22.800384,15.09626948,.00008912,53.1619,276.9646,85.8536,274.2558,0,U,51799,999,23845,.54019134E-2,.88664E-3,0
STARLINK-3592,2022-017AK,2026-06-13T14:26:36.667392,15.08814914,.0001253,53.1596,278.4803,78.1684,281.9448,0,U,51801,999,23840,-.11375E-3,-.2097E-4,0
STARLINK-3544,2022-017AM,2026-06-13T22:06:01.653408,15.09642216,.00012673,53.1613,277.0350,67.7955,292.3171,0,U,51803,999,23844,.52865597E-2,.86778E-3,0
STARLINK-3601,2022-017AN,2026-06-13T12:53:50.262720,15.08846475,.00010583,53.1596,258.7704,75.6680,284.4429,0,U,51804,999,23862,.96626827E-4,.1251E-4,0
STARLINK-3605,2022-017AP,2026-06-13T11:23:46.181184,15.08832680,.00006216,53.1604,259.1283,21.6791,338.4227,0,U,51805,999,23870,.2350478E-5,-.25E-5,0
STARLINK-3606,2022-017AR,2026-06-13T13:19:00.580512,15.08833202,.0000937,53.1605,268.6873,100.2592,259.8505,0,U,51807,999,23858,.4656535E-5,-.214E-5,0
